RSP-03                  
1 65732U 98067XL  26043.39457935  .01544905  17498-2  14906-2 0  9994
2 65732  51.6116 176.0743 0009318 323.2013  36.8360 16.11310565 22928
YOTSUBA-KULOVER         
1 65941U 98067XN  26043.27429969  .00158238  00000+0  11723-2 0  9990
2 65941  51.6244 188.1819 0004440 286.2455  73.8054 15.71881503 19498
BOTAN                   
1 65942U 98067XP  26042.80224071  .00400641  00000+0  14631-2 0  9995
2 65942  51.6168 186.4744 0007597 307.2999  52.7312 15.86770887 19474
E-KAGAKU-1              
1 65943U 98067XQ  26042.44874700  .00152677  00000+0  11493-2 0  9992
2 65943  51.6273 192.4326 0003837 294.8834  65.1765 15.71525219 19366
HRC MONOBLOCK CAMERA    
1 66052U 98067XR  26043.40977558  .00054247  00000+0  67052-3 0  9993
2 66052  51.6269 192.8509 0001501 359.2911   0.8079 15.59580816 18440
HTV-X1                  
1 66174U 25241A   26043.14939979  .00009847  00000+0  18925-3 0  9999
2 66174  51.6314 198.6099 0011093  90.1489 270.0770 15.48559167   513
SZ-21 MODULE            
1 66515U 25246C   26043.27056566  .00039145  00000+0  36437-3 0  9991
2 66515  41.4762 359.5986 0002500 292.2665  67.7911 15.66611010 14084
SHENZHOU-22             
1 66645U 25272A   26043.23740446  .00027248  00000+0  33631-3 0  9991
2 66645  41.4683   2.8971 0004186  69.0977 291.0309 15.59536312267648
SOYUZ-MS 28             
1 66664U 25275A   26043.40753358  .00009524  00000+0  18329-3 0  9994
2 66664  51.6314 197.3334 0011100  91.0041 269.2219 15.48564056552410
DUPLEX                  
1 66906U 98067XS  26043.39897361  .00036532  00000+0  55007-3 0  9996
2 66906  51.6287 195.7785 0001295  81.0043 279.1094 15.54450138 11193
ISS OBJECT XT           
1 66907U 98067XT  26043.43265656  .00130924  00000+0  14255-2 0  9997
2 66907  51.6269 193.7533 0001928 281.3599  78.7178 15.62487257 11228
ISS OBJECT XU           
1 66908U 98067XU  26043.43200364  .00130581  00000+0  14203-2 0  9995
2 66908  51.6262 193.7463 0001762 285.9993  74.0807 15.62515824 11228
