CCSDS_OMM_VERS = 2.0
CREATION_DATE  = 
ORIGINATOR     = 

OBJECT_NAME    = RSP-03
OBJECT_ID      = 1998-067XL
CENTER_NAME    = EARTH
REF_FRAME      = TEME
TIME_SYSTEM    = UTC
MEAN_ELEMENT_THEORY = SGP/SGP4

EPOCH          = 2026-02-12T09:28:11.655840
MEAN_MOTION    = 16.11310565
ECCENTRICITY   = .0009318
INCLINATION    = 51.6116
RA_OF_ASC_NODE = 176.0743
ARG_OF_PERICENTER = 323.2013
MEAN_ANOMALY   = 36.8360

EPHEMERIS_TYPE = 0
CLASSIFICATION_TYPE = U
NORAD_CAT_ID   = 65732
ELEMENT_SET_NO = 999
REV_AT_EPOCH   = 2292
BSTAR          = .14906E-2
MEAN_MOTION_DOT = .1544905E-1
MEAN_MOTION_DDOT = .17498E-2

CCSDS_OMM_VERS = 2.0
CREATION_DATE  = 
ORIGINATOR     = 

OBJECT_NAME    = YOTSUBA-KULOVER
OBJECT_ID      = 1998-067XN
CENTER_NAME    = EARTH
REF_FRAME      = TEME
TIME_SYSTEM    = UTC
MEAN_ELEMENT_THEORY = SGP/SGP4

EPOCH          = 2026-02-12T06:34:59.493216
MEAN_MOTION    = 15.71881503
ECCENTRICITY   = .00044402
INCLINATION    = 51.6244
RA_OF_ASC_NODE = 188.1819
ARG_OF_PERICENTER = 286.2455
MEAN_ANOMALY   = 73.8054

EPHEMERIS_TYPE = 0
CLASSIFICATION_TYPE = U
NORAD_CAT_ID   = 65941
ELEMENT_SET_NO = 999
REV_AT_EPOCH   = 1949
BSTAR          = .11723001E-2
MEAN_MOTION_DOT = .158238E-2
MEAN_MOTION_DDOT = 0

CCSDS_OMM_VERS = 2.0
CREATION_DATE  = 
ORIGINATOR     = 

OBJECT_NAME    = BOTAN
OBJECT_ID      = 1998-067XP
CENTER_NAME    = EARTH
REF_FRAME      = TEME
TIME_SYSTEM    = UTC
MEAN_ELEMENT_THEORY = SGP/SGP4

EPOCH          = 2026-02-11T19:15:13.597344
MEAN_MOTION    = 15.86770887
ECCENTRICITY   = .00075975
INCLINATION    = 51.6168
RA_OF_ASC_NODE = 186.4744
ARG_OF_PERICENTER = 307.2999
MEAN_ANOMALY   = 52.7312

EPHEMERIS_TYPE = 0
CLASSIFICATION_TYPE = U
NORAD_CAT_ID   = 65942
ELEMENT_SET_NO = 999
REV_AT_EPOCH   = 1947
BSTAR          = .14631351E-2
MEAN_MOTION_DOT = .400641E-2
MEAN_MOTION_DDOT = 0

CCSDS_OMM_VERS = 2.0
CREATION_DATE  = 
ORIGINATOR     = 

OBJECT_NAME    = E-KAGAKU-1
OBJECT_ID      = 1998-067XQ
CENTER_NAME    = EARTH
REF_FRAME      = TEME
TIME_SYSTEM    = UTC
MEAN_ELEMENT_THEORY = SGP/SGP4

EPOCH          = 2026-02-11T10:46:11.740800
MEAN_MOTION    = 15.71525219
ECCENTRICITY   = .00038379
INCLINATION    = 51.6273
RA_OF_ASC_NODE = 192.4326
ARG_OF_PERICENTER = 294.8834
MEAN_ANOMALY   = 65.1765

EPHEMERIS_TYPE = 0
CLASSIFICATION_TYPE = U
NORAD_CAT_ID   = 65943
ELEMENT_SET_NO = 999
REV_AT_EPOCH   = 1936
BSTAR          = .11492757E-2
MEAN_MOTION_DOT = .152677E-2
MEAN_MOTION_DDOT = 0

CCSDS_OMM_VERS = 2.0
CREATION_DATE  = 
ORIGINATOR     = 

OBJECT_NAME    = HRC MONOBLOCK CAMERA
OBJECT_ID      = 1998-067XR
CENTER_NAME    = EARTH
REF_FRAME      = TEME
TIME_SYSTEM    = UTC
MEAN_ELEMENT_THEORY = SGP/SGP4

EPOCH          = 2026-02-12T09:50:04.610112
MEAN_MOTION    = 15.59580816
ECCENTRICITY   = .0001501
INCLINATION    = 51.6269
RA_OF_ASC_NODE = 192.8509
ARG_OF_PERICENTER = 359.2911
MEAN_ANOMALY   = 0.8079

EPHEMERIS_TYPE = 0
CLASSIFICATION_TYPE = U
NORAD_CAT_ID   = 66052
ELEMENT_SET_NO = 999
REV_AT_EPOCH   = 1844
BSTAR          = .67052E-3
MEAN_MOTION_DOT = .54247E-3
MEAN_MOTION_DDOT = 0

CCSDS_OMM_VERS = 2.0
CREATION_DATE  = 
ORIGINATOR     = 

OBJECT_NAME    = HTV-X1
OBJECT_ID      = 2025-241A
CENTER_NAME    = EARTH
REF_FRAME      = TEME
TIME_SYSTEM    = UTC
MEAN_ELEMENT_THEORY = SGP/SGP4

EPOCH          = 2026-02-12T03:35:08.141856
MEAN_MOTION    = 15.48559167
ECCENTRICITY   = .00110937
INCLINATION    = 51.6314
RA_OF_ASC_NODE = 198.6099
ARG_OF_PERICENTER = 90.1489
MEAN_ANOMALY   = 270.0770

EPHEMERIS_TYPE = 0
CLASSIFICATION_TYPE = U
NORAD_CAT_ID   = 66174
ELEMENT_SET_NO = 999
REV_AT_EPOCH   = 51
BSTAR          = .18924557E-3
MEAN_MOTION_DOT = .9847E-4
MEAN_MOTION_DDOT = 0

CCSDS_OMM_VERS = 2.0
CREATION_DATE  = 
ORIGINATOR     = 

OBJECT_NAME    = SZ-21 MODULE
OBJECT_ID      = 2025-246C
CENTER_NAME    = EARTH
REF_FRAME      = TEME
TIME_SYSTEM    = UTC
MEAN_ELEMENT_THEORY = SGP/SGP4

EPOCH          = 2026-02-12T06:29:36.873024
MEAN_MOTION    = 15.66611010
ECCENTRICITY   = .00025
INCLINATION    = 41.4762
RA_OF_ASC_NODE = 359.5986
ARG_OF_PERICENTER = 292.2665
MEAN_ANOMALY   = 67.7911

EPHEMERIS_TYPE = 0
CLASSIFICATION_TYPE = U
NORAD_CAT_ID   = 66515
ELEMENT_SET_NO = 999
REV_AT_EPOCH   = 1408
BSTAR          = .36437E-3
MEAN_MOTION_DOT = .39145E-3
MEAN_MOTION_DDOT = 0

CCSDS_OMM_VERS = 2.0
CREATION_DATE  = 
ORIGINATOR     = 

OBJECT_NAME    = SHENZHOU-22
OBJECT_ID      = 2025-272A
CENTER_NAME    = EARTH
REF_FRAME      = TEME
TIME_SYSTEM    = UTC
MEAN_ELEMENT_THEORY = SGP/SGP4

EPOCH          = 2026-02-12T05:41:51.745344
MEAN_MOTION    = 15.59536312
ECCENTRICITY   = .00041869
INCLINATION    = 41.4683
RA_OF_ASC_NODE = 2.8971
ARG_OF_PERICENTER = 69.0977
MEAN_ANOMALY   = 291.0309

EPHEMERIS_TYPE = 0
CLASSIFICATION_TYPE = U
NORAD_CAT_ID   = 66645
ELEMENT_SET_NO = 999
REV_AT_EPOCH   = 26764
BSTAR          = .3363121E-3
MEAN_MOTION_DOT = .27248E-3
MEAN_MOTION_DDOT = 0

CCSDS_OMM_VERS = 2.0
CREATION_DATE  = 
ORIGINATOR     = 

OBJECT_NAME    = SOYUZ-MS 28
OBJECT_ID      = 2025-275A
CENTER_NAME    = EARTH
REF_FRAME      = TEME
TIME_SYSTEM    = UTC
MEAN_ELEMENT_THEORY = SGP/SGP4

EPOCH          = 2026-02-12T09:46:50.901312
MEAN_MOTION    = 15.48564056
ECCENTRICITY   = .00111
INCLINATION    = 51.6314
RA_OF_ASC_NODE = 197.3334
ARG_OF_PERICENTER = 91.0041
MEAN_ANOMALY   = 269.2219

EPHEMERIS_TYPE = 0
CLASSIFICATION_TYPE = U
NORAD_CAT_ID   = 66664
ELEMENT_SET_NO = 999
REV_AT_EPOCH   = 55241
BSTAR          = .18329E-3
MEAN_MOTION_DOT = .9524E-4
MEAN_MOTION_DDOT = 0

CCSDS_OMM_VERS = 2.0
CREATION_DATE  = 
ORIGINATOR     = 

OBJECT_NAME    = DUPLEX
OBJECT_ID      = 1998-067XS
CENTER_NAME    = EARTH
REF_FRAME      = TEME
TIME_SYSTEM    = UTC
MEAN_ELEMENT_THEORY = SGP/SGP4

EPOCH          = 2026-02-12T09:34:31.319904
MEAN_MOTION    = 15.54450138
ECCENTRICITY   = .0001295
INCLINATION    = 51.6287
RA_OF_ASC_NODE = 195.7785
ARG_OF_PERICENTER = 81.0043
MEAN_ANOMALY   = 279.1094

EPHEMERIS_TYPE = 0
CLASSIFICATION_TYPE = U
NORAD_CAT_ID   = 66906
ELEMENT_SET_NO = 999
REV_AT_EPOCH   = 1119
BSTAR          = .55007E-3
MEAN_MOTION_DOT = .36532E-3
MEAN_MOTION_DDOT = 0

CCSDS_OMM_VERS = 2.0
CREATION_DATE  = 
ORIGINATOR     = 

OBJECT_NAME    = ISS OBJECT XT
OBJECT_ID      = 1998-067XT
CENTER_NAME    = EARTH
REF_FRAME      = TEME
TIME_SYSTEM    = UTC
MEAN_ELEMENT_THEORY = SGP/SGP4

EPOCH          = 2026-02-12T10:23:01.526784
MEAN_MOTION    = 15.62487257
ECCENTRICITY   = .0001928
INCLINATION    = 51.6269
RA_OF_ASC_NODE = 193.7533
ARG_OF_PERICENTER = 281.3599
MEAN_ANOMALY   = 78.7178

EPHEMERIS_TYPE = 0
CLASSIFICATION_TYPE = U
NORAD_CAT_ID   = 66907
ELEMENT_SET_NO = 999
REV_AT_EPOCH   = 1122
BSTAR          = .14255E-2
MEAN_MOTION_DOT = .130924E-2
MEAN_MOTION_DDOT = 0

CCSDS_OMM_VERS = 2.0
CREATION_DATE  = 
ORIGINATOR     = 

OBJECT_NAME    = ISS OBJECT XU
OBJECT_ID      = 1998-067XU
CENTER_NAME    = EARTH
REF_FRAME      = TEME
TIME_SYSTEM    = UTC
MEAN_ELEMENT_THEORY = SGP/SGP4

EPOCH          = 2026-02-12T10:22:05.114496
MEAN_MOTION    = 15.62515824
ECCENTRICITY   = .0001762
INCLINATION    = 51.6262
RA_OF_ASC_NODE = 193.7463
ARG_OF_PERICENTER = 285.9993
MEAN_ANOMALY   = 74.0807

EPHEMERIS_TYPE = 0
CLASSIFICATION_TYPE = U
NORAD_CAT_ID   = 66908
ELEMENT_SET_NO = 999
REV_AT_EPOCH   = 1122
BSTAR          = .14203E-2
MEAN_MOTION_DOT = .130581E-2
MEAN_MOTION_DDOT = 0

